[{"OBJECT_NAME":"YAOGAN-36 01A","OBJECT_ID":"2022-120A","EPOCH":"2026-03-09T18:17:39.175872","MEAN_MOTION":15.22125163,"ECCENTRICITY":0.00052111,"INCLINATION":34.9902,"RA_OF_ASC_NODE":190.0789,"ARG_OF_PERICENTER":178.8422,"MEAN_ANOMALY":181.2305,"EPHEMERIS_TYPE":0,"CLASSIFICATION_TYPE":"U","NORAD_CAT_ID":53943,"ELEMENT_SET_NO":999,"REV_AT_EPOCH":19214,"BSTAR":0.00051239163,"MEAN_MOTION_DOT":0.00012015,"MEAN_MOTION_DDOT":0},{"OBJECT_NAME":"UNICORN-2L","OBJECT_ID":"2023-185R","EPOCH":"2026-03-09T22:52:50.754144","MEAN_MOTION":15.19481875,"ECCENTRICITY":0.00120211,"INCLINATION":97.5467,"RA_OF_ASC_NODE":142.778,"ARG_OF_PERICENTER":300.2318,"MEAN_ANOMALY":59.7725,"EPHEMERIS_TYPE":0,"CLASSIFICATION_TYPE":"U","NORAD_CAT_ID":58727,"ELEMENT_SET_NO":999,"REV_AT_EPOCH":11971,"BSTAR":0.00055843151,"MEAN_MOTION_DOT":0.0001181,"MEAN_MOTION_DDOT":0}]
